DUPLEX                  
1 66906U 98067XS  26102.14684494  .00024662  00000+0  32242-3 0  9993
2 66906  51.6279 261.8230 0003732 278.1470  81.9099 15.58481878 20345
ISS OBJECT XT           
1 66907U 98067XT  26101.81180907  .00283171  00000+0  11628-2 0  9993
2 66907  51.6203 255.0176 0009294 295.1718  64.8321 15.84614948 20400
ISS OBJECT XU           
1 66908U 98067XU  26102.12005111  .00280366  00000+0  11178-2 0  9995
2 66908  51.6199 253.3197 0009350 295.4770  64.5266 15.85236979 20458
SILVERSAT               
1 66909U 98067XV  26101.44198092  .00588813  15493-3  14302-2 0  9997
2 66909  51.6155 254.7584 0011917 300.1845  59.7981 15.95566356 20372
ISS OBJECT XW           
1 66910U 98067XW  26101.71105722  .00257233  00000+0  12146-2 0  9994
2 66910  51.6192 255.8381 0008919 287.8602  72.1427 15.81724614 20385
ISS OBJECT XX           
1 66911U 98067XX  26101.45822411  .06931681  12208-4  13558-2 0  9995
2 66911  51.5990 251.7761 0012203 297.7475  62.2310 16.30633237 20406
ISS OBJECT XY           
1 66912U 98067XY  26101.86640353  .00098988  00000+0  75975-3 0  9996
2 66912  51.6241 258.4264 0005916 286.0307  74.0039 15.71254778 20353
KNACKSAT-2              
1 67683U 98067XZ  26101.86191852  .00032956  00000+0  49119-3 0  9991
2 67683  51.6299 266.6723 0011105 310.2228  49.7790 15.54718070  9948
CORAL                   
1 67684U 98067YA  26101.74934358  .00088342  00000+0  10426-2 0  9993
2 67684  51.6272 265.9186 0014573 301.4424  58.5144 15.60463232  9942
GXIBA-1                 
1 67685U 98067YB  26101.84624355  .00035459  00000+0  51378-3 0  9991
2 67685  51.6298 266.5680 0013091 307.2510  52.7287 15.55423821  9949
UITMSAT-2               
1 67686U 98067YC  26101.17939142  .00046265  00000+0  63791-3 0  9990
2 67686  51.6296 269.6181 0009995 281.9734  78.0137 15.56684408  9847
HMU-SAT2                
1 67687U 98067YD  26101.85366506  .00036725  00000+0  53855-3 0  9994
2 67687  51.6319 266.6219 0009679 286.2702  73.7224 15.55123718  9867
LEOPARD                 
1 67688U 98067YE  26101.76848047  .00047117  00000+0  66276-3 0  9998
2 67688  51.6291 266.8011 0009609 284.4987  75.4938 15.56141373  9855
CREW DRAGON 12          
1 67796U 26031A   26101.94100262  .00005402  00000+0  10657-3 0  9993
2 67796  51.6326 267.9482 0006451 301.5882  58.4476 15.48877690561507
PROGRESS-MS 33          
1 68319U 26058A   26101.94100262  .00005402  00000+0  10657-3 0  9994
2 68319  51.6326 267.9482 0006451 301.5882  58.4476 15.48877690  2240
CYGNUS NG-24            
1 68689U 26079A   26102.29143880  .00210070  32829-4  21455-3 0  9995
2 68689  51.6618 266.5112 0006463 290.6965  69.3357 16.10282382   135
